CCSDS_OMM_VERS = 2.0
CREATION_DATE  = 
ORIGINATOR     = 

OBJECT_NAME    = SL-4 R/B
OBJECT_ID      = 2014-021B
CENTER_NAME    = EARTH
REF_FRAME      = TEME
TIME_SYSTEM    = UTC
MEAN_ELEMENT_THEORY = SGP/SGP4

EPOCH          = 2025-12-15T19:15:20.492064
MEAN_MOTION    = 15.36745110
ECCENTRICITY   = .01015255
INCLINATION    = 51.6086
RA_OF_ASC_NODE = 25.7099
ARG_OF_PERICENTER = 157.1811
MEAN_ANOMALY   = 203.3731

EPHEMERIS_TYPE = 0
CLASSIFICATION_TYPE = U
NORAD_CAT_ID   = 39679
ELEMENT_SET_NO = 999
REV_AT_EPOCH   = 64336
BSTAR          = .19843843E-3
MEAN_MOTION_DOT = .8157E-4
MEAN_MOTION_DDOT = 0

CCSDS_OMM_VERS = 2.0
CREATION_DATE  = 
ORIGINATOR     = 

OBJECT_NAME    = ALOS-2
OBJECT_ID      = 2014-029A
CENTER_NAME    = EARTH
REF_FRAME      = TEME
TIME_SYSTEM    = UTC
MEAN_ELEMENT_THEORY = SGP/SGP4

EPOCH          = 2025-12-15T23:44:46.426272
MEAN_MOTION    = 14.79466887
ECCENTRICITY   = .00013786
INCLINATION    = 97.9224
RA_OF_ASC_NODE = 84.7889
ARG_OF_PERICENTER = 97.0355
MEAN_ANOMALY   = 263.1013

EPHEMERIS_TYPE = 0
CLASSIFICATION_TYPE = U
NORAD_CAT_ID   = 39766
ELEMENT_SET_NO = 999
REV_AT_EPOCH   = 62449
BSTAR          = .82993901E-4
MEAN_MOTION_DOT = .568E-5
MEAN_MOTION_DDOT = 0

CCSDS_OMM_VERS = 2.0
CREATION_DATE  = 
ORIGINATOR     = 

OBJECT_NAME    = YAOGAN-29
OBJECT_ID      = 2015-069A
CENTER_NAME    = EARTH
REF_FRAME      = TEME
TIME_SYSTEM    = UTC
MEAN_ELEMENT_THEORY = SGP/SGP4

EPOCH          = 2025-12-15T23:47:06.020160
MEAN_MOTION    = 14.82887133
ECCENTRICITY   = .00001495
INCLINATION    = 98.0225
RA_OF_ASC_NODE = 13.1736
ARG_OF_PERICENTER = 204.2946
MEAN_ANOMALY   = 155.8260

EPHEMERIS_TYPE = 0
CLASSIFICATION_TYPE = U
NORAD_CAT_ID   = 41038
ELEMENT_SET_NO = 999
REV_AT_EPOCH   = 54347
BSTAR          = .50680641E-4
MEAN_MOTION_DOT = .357E-5
MEAN_MOTION_DDOT = 0

CCSDS_OMM_VERS = 2.0
CREATION_DATE  = 
ORIGINATOR     = 

OBJECT_NAME    = ASTRO-H (HITOMI)
OBJECT_ID      = 2016-012A
CENTER_NAME    = EARTH
REF_FRAME      = TEME
TIME_SYSTEM    = UTC
MEAN_ELEMENT_THEORY = SGP/SGP4

EPOCH          = 2025-12-15T22:20:00.325248
MEAN_MOTION    = 15.09374122
ECCENTRICITY   = .00096339
INCLINATION    = 30.9977
RA_OF_ASC_NODE = 176.8014
ARG_OF_PERICENTER = 211.1588
MEAN_ANOMALY   = 148.8480

EPHEMERIS_TYPE = 0
CLASSIFICATION_TYPE = U
NORAD_CAT_ID   = 41337
ELEMENT_SET_NO = 999
REV_AT_EPOCH   = 53956
BSTAR          = .14356688E-3
MEAN_MOTION_DOT = .2446E-4
MEAN_MOTION_DDOT = 0

CCSDS_OMM_VERS = 2.0
CREATION_DATE  = 
ORIGINATOR     = 

OBJECT_NAME    = HXMT (HUIYAN)
OBJECT_ID      = 2017-034A
CENTER_NAME    = EARTH
REF_FRAME      = TEME
TIME_SYSTEM    = UTC
MEAN_ELEMENT_THEORY = SGP/SGP4

EPOCH          = 2025-12-15T19:42:23.743296
MEAN_MOTION    = 15.16274965
ECCENTRICITY   = .00312652
INCLINATION    = 43.0128
RA_OF_ASC_NODE = 122.5277
ARG_OF_PERICENTER = 63.5568
MEAN_ANOMALY   = 296.8483

EPHEMERIS_TYPE = 0
CLASSIFICATION_TYPE = U
NORAD_CAT_ID   = 42758
ELEMENT_SET_NO = 999
REV_AT_EPOCH   = 46980
BSTAR          = .20101004E-3
MEAN_MOTION_DOT = .3768E-4
MEAN_MOTION_DDOT = 0

CCSDS_OMM_VERS = 2.0
CREATION_DATE  = 
ORIGINATOR     = 

OBJECT_NAME    = CZ-2C R/B
OBJECT_ID      = 2018-054D
CENTER_NAME    = EARTH
REF_FRAME      = TEME
TIME_SYSTEM    = UTC
MEAN_ELEMENT_THEORY = SGP/SGP4

EPOCH          = 2025-12-15T18:40:26.526720
MEAN_MOTION    = 15.74743985
ECCENTRICITY   = .00151866
INCLINATION    = 35.1316
RA_OF_ASC_NODE = 160.2828
ARG_OF_PERICENTER = 175.7937
MEAN_ANOMALY   = 184.2926

EPHEMERIS_TYPE = 0
CLASSIFICATION_TYPE = U
NORAD_CAT_ID   = 43521
ELEMENT_SET_NO = 999
REV_AT_EPOCH   = 41553
BSTAR          = .59571437E-3
MEAN_MOTION_DOT = .92557E-3
MEAN_MOTION_DDOT = 0

CCSDS_OMM_VERS = 2.0
CREATION_DATE  = 
ORIGINATOR     = 

OBJECT_NAME    = SAOCOM 1A
OBJECT_ID      = 2018-076A
CENTER_NAME    = EARTH
REF_FRAME      = TEME
TIME_SYSTEM    = UTC
MEAN_ELEMENT_THEORY = SGP/SGP4

EPOCH          = 2025-12-15T23:31:03.696960
MEAN_MOTION    = 14.82161659
ECCENTRICITY   = .00014969
INCLINATION    = 97.8847
RA_OF_ASC_NODE = 174.3546
ARG_OF_PERICENTER = 78.7620
MEAN_ANOMALY   = 281.3761

EPHEMERIS_TYPE = 0
CLASSIFICATION_TYPE = U
NORAD_CAT_ID   = 43641
ELEMENT_SET_NO = 999
REV_AT_EPOCH   = 38896
BSTAR          = .36532064E-4
MEAN_MOTION_DOT = .239E-5
MEAN_MOTION_DDOT = 0

CCSDS_OMM_VERS = 2.0
CREATION_DATE  = 
ORIGINATOR     = 

OBJECT_NAME    = H-2A R/B
OBJECT_ID      = 2018-084L
CENTER_NAME    = EARTH
REF_FRAME      = TEME
TIME_SYSTEM    = UTC
MEAN_ELEMENT_THEORY = SGP/SGP4

EPOCH          = 2025-12-15T19:35:46.609152
MEAN_MOTION    = 15.37484689
ECCENTRICITY   = .00271455
INCLINATION    = 98.8773
RA_OF_ASC_NODE = 184.5331
ARG_OF_PERICENTER = 315.8004
MEAN_ANOMALY   = 44.1067

EPHEMERIS_TYPE = 0
CLASSIFICATION_TYPE = U
NORAD_CAT_ID   = 43682
ELEMENT_SET_NO = 999
REV_AT_EPOCH   = 39287
BSTAR          = .37101762E-3
MEAN_MOTION_DOT = .13708E-3
MEAN_MOTION_DDOT = 0

CCSDS_OMM_VERS = 2.0
CREATION_DATE  = 
ORIGINATOR     = 

OBJECT_NAME    = SAOCOM 1B
OBJECT_ID      = 2020-059A
CENTER_NAME    = EARTH
REF_FRAME      = TEME
TIME_SYSTEM    = UTC
MEAN_ELEMENT_THEORY = SGP/SGP4

EPOCH          = 2025-12-16T00:16:03.068832
MEAN_MOTION    = 14.82165789
ECCENTRICITY   = .00012786
INCLINATION    = 97.8841
RA_OF_ASC_NODE = 173.4857
ARG_OF_PERICENTER = 85.1787
MEAN_ANOMALY   = 274.9573

EPHEMERIS_TYPE = 0
CLASSIFICATION_TYPE = U
NORAD_CAT_ID   = 46265
ELEMENT_SET_NO = 999
REV_AT_EPOCH   = 28635
BSTAR          = .11190469E-3
MEAN_MOTION_DOT = .839E-5
MEAN_MOTION_DDOT = 0

CCSDS_OMM_VERS = 2.0
CREATION_DATE  = 
ORIGINATOR     = 

OBJECT_NAME    = CSS (TIANHE)
OBJECT_ID      = 2021-035A
CENTER_NAME    = EARTH
REF_FRAME      = TEME
TIME_SYSTEM    = UTC
MEAN_ELEMENT_THEORY = SGP/SGP4

EPOCH          = 2025-12-15T17:24:02.570400
MEAN_MOTION    = 15.59304358
ECCENTRICITY   = .00079014
INCLINATION    = 41.4685
RA_OF_ASC_NODE = 358.5824
ARG_OF_PERICENTER = 56.1338
MEAN_ANOMALY   = 304.0252

EPHEMERIS_TYPE = 0
CLASSIFICATION_TYPE = U
NORAD_CAT_ID   = 48274
ELEMENT_SET_NO = 999
REV_AT_EPOCH   = 26449
BSTAR          = .18266576E-3
MEAN_MOTION_DOT = .14504E-3
MEAN_MOTION_DDOT = 0

CCSDS_OMM_VERS = 2.0
CREATION_DATE  = 
ORIGINATOR     = 

OBJECT_NAME    = COSMOS 2550
OBJECT_ID      = 2021-056A
CENTER_NAME    = EARTH
REF_FRAME      = TEME
TIME_SYSTEM    = UTC
MEAN_ELEMENT_THEORY = SGP/SGP4

EPOCH          = 2025-12-15T09:35:22.191360
MEAN_MOTION    = 15.33827300
ECCENTRICITY   = .00083327
INCLINATION    = 67.1454
RA_OF_ASC_NODE = 295.8884
ARG_OF_PERICENTER = 269.4390
MEAN_ANOMALY   = 90.5810

EPHEMERIS_TYPE = 0
CLASSIFICATION_TYPE = U
NORAD_CAT_ID   = 48865
ELEMENT_SET_NO = 999
REV_AT_EPOCH   = 25053
BSTAR          = .3900732E-5
MEAN_MOTION_DOT = -.63E-6
MEAN_MOTION_DDOT = 0

CCSDS_OMM_VERS = 2.0
CREATION_DATE  = 
ORIGINATOR     = 

OBJECT_NAME    = CZ-2C R/B
OBJECT_ID      = 2022-058K
CENTER_NAME    = EARTH
REF_FRAME      = TEME
TIME_SYSTEM    = UTC
MEAN_ELEMENT_THEORY = SGP/SGP4

EPOCH          = 2025-12-15T12:24:52.034688
MEAN_MOTION    = 15.48652892
ECCENTRICITY   = .00451624
INCLINATION    = 50.1917
RA_OF_ASC_NODE = 29.3837
ARG_OF_PERICENTER = 210.0126
MEAN_ANOMALY   = 149.8253

EPHEMERIS_TYPE = 0
CLASSIFICATION_TYPE = U
NORAD_CAT_ID   = 52794
ELEMENT_SET_NO = 999
REV_AT_EPOCH   = 19706
BSTAR          = .3432909E-3
MEAN_MOTION_DOT = .19058E-3
MEAN_MOTION_DDOT = 0

