SL-4 R/B                
1 39679U 14021B   25349.80232051  .00008157  00000+0  19844-3 0  9995
2 39679  51.6086  25.7099 0101525 157.1811 203.3731 15.36745110643366
ALOS-2                  
1 39766U 14029A   25349.98942623  .00000568  00000+0  82994-4 0  9997
2 39766  97.9224  84.7889 0001378  97.0355 263.1013 14.79466887624499
YAOGAN-29               
1 41038U 15069A   25349.99104190  .00000357  00000+0  50681-4 0  9991
2 41038  98.0225  13.1736 0000149 204.2946 155.8260 14.82887133543471
ASTRO-H (HITOMI)        
1 41337U 16012A   25349.93055932  .00002446  00000+0  14357-3 0  9995
2 41337  30.9977 176.8014 0009633 211.1588 148.8480 15.09374122539564
HXMT (HUIYAN)           
1 42758U 17034A   25349.82110814  .00003768  00000+0  20101-3 0  9999
2 42758  43.0128 122.5277 0031265  63.5568 296.8483 15.16274965469805
CZ-2C R/B               
1 43521U 18054D   25349.77808480  .00092557  00000+0  59571-3 0  9995
2 43521  35.1316 160.2828 0015186 175.7937 184.2926 15.74743985415536
SAOCOM 1A               
1 43641U 18076A   25349.97990390  .00000239  00000+0  36532-4 0  9995
2 43641  97.8847 174.3546 0001496  78.7620 281.3761 14.82161659388968
H-2A R/B                
1 43682U 18084L   25349.81651168  .00013708  00000+0  37102-3 0  9997
2 43682  98.8773 184.5331 0027145 315.8004  44.1067 15.37484689392878
SAOCOM 1B               
1 46265U 20059A   25350.01114663  .00000839  00000+0  11190-3 0  9990
2 46265  97.8841 173.4857 0001278  85.1787 274.9573 14.82165789286353
CSS (TIANHE)            
1 48274U 21035A   25349.72502975  .00014504  00000+0  18267-3 0  9996
2 48274  41.4685 358.5824 0007901  56.1338 304.0252 15.59304358264497
COSMOS 2550             
1 48865U 21056A   25349.39956240 -.00000063  00000+0  39007-5 0  9999
2 48865  67.1454 295.8884 0008332 269.4390  90.5810 15.33827300250533
CZ-2C R/B               
1 52794U 22058K   25349.51726892  .00019058  00000+0  34329-3 0  9993
2 52794  50.1917  29.3837 0045162 210.0126 149.8253 15.48652892197069
